{"type": "FeatureCollection", "features": [ {"type": "Feature", "properties": {"norad_id": 44542, "name": "BEIDOU-3 M24 (C46)", "group": "gnss", "lat": 2.684298082010157, "lon": 6.827145741048473, "alt_km": 21551.52185231009, "timestamp": "2025-12-20T16:47:36.529967+00:00", "meta": {"OBJECT_NAME": "BEIDOU-3 M24 (C46)", "OBJECT_ID": "2019-061A", "EPOCH": "2025-12-19T21:35:13.024320", "MEAN_MOTION": 1.86229464, "ECCENTRICITY": 0.00096018, "INCLINATION": 54.4003, "RA_OF_ASC_NODE": 188.7744, "ARG_OF_PERICENTER": 25.6941, "MEAN_ANOMALY": 334.4131, "EPHEMERIS_TYPE": 0, "CLASSIFICATION_TYPE": "U", "NORAD_CAT_ID": 44542, "ELEMENT_SET_NO": 999, "REV_AT_EPOCH": 4245, "BSTAR": 0, "MEAN_MOTION_DOT": 1e-06, "MEAN_MOTION_DDOT": 0}, "tle": {"line1": "1 44542U 19061A   25353.89945630  .00000100  00000+0  00000+0 0  9997", "line2": "2 44542  54.4003 188.7744 0009601  25.6941 334.4131  1.86229464 42455"}}, "geometry": {"type": "Point", "coordinates": [6.827145741048473, 2.684298082010157]}}, {"type": "Feature", "properties": {"norad_id": 44543, "name": "BEIDOU-3 M23 (C45)", "group": "gnss", "lat": 54.36010636167965, "lon": -82.31927554438111, "alt_km": 21514.607086950058, "timestamp": "2025-12-20T16:47:36.529984+00:00", "meta": {"OBJECT_NAME": "BEIDOU-3 M23 (C45)", "OBJECT_ID": "2019-061B", "EPOCH": "2025-12-20T12:51:14.567328", "MEAN_MOTION": 1.86227656, "ECCENTRICITY": 0.000608, "INCLINATION": 54.3994, "RA_OF_ASC_NODE": 188.7213, "ARG_OF_PERICENTER": 25.3001, "MEAN_ANOMALY": 314.0126, "EPHEMERIS_TYPE": 0, "CLASSIFICATION_TYPE": "U", "NORAD_CAT_ID": 44543, "ELEMENT_SET_NO": 999, "REV_AT_EPOCH": 4246, "BSTAR": 0, "MEAN_MOTION_DOT": 9.7e-07, "MEAN_MOTION_DDOT": 0}, "tle": {"line1": "1 44543U 19061B   25354.53558527  .00000097  00000+0  00000+0 0  9990", "line2": "2 44543  54.3994 188.7213 0006080  25.3001 314.0126  1.86227656 42467"}}, "geometry": {"type": "Point", "coordinates": [-82.31927554438111, 54.36010636167965]}}, {"type": "Feature", "properties": {"norad_id": 44624, "name": "EUTELSAT 5 WEST B (EGNOS/PRN 121)", "group": "gnss", "lat": -0.005191764099423343, "lon": -23.5401738634825, "alt_km": 35781.291707699595, "timestamp": "2025-12-20T16:47:36.530003+00:00", "meta": {"OBJECT_NAME": "EUTELSAT 5 WEST B (EGNOS/PRN 121)", "OBJECT_ID": "2019-067A", "EPOCH": "2025-12-20T06:21:33.095232", "MEAN_MOTION": 1.00271304, "ECCENTRICITY": 0.0002997, "INCLINATION": 0.0675, "RA_OF_ASC_NODE": 334.6268, "ARG_OF_PERICENTER": 294.5893, "MEAN_ANOMALY": 270.2794, "EPHEMERIS_TYPE": 0, "CLASSIFICATION_TYPE": "U", "NORAD_CAT_ID": 44624, "ELEMENT_SET_NO": 999, "REV_AT_EPOCH": 2264, "BSTAR": 0, "MEAN_MOTION_DOT": -1.8e-07, "MEAN_MOTION_DDOT": 0}, "tle": {"line1": "1 44624U 19067A   25354.26496638 -.00000018  00000+0  00000+0 0  9994", "line2": "2 44624   0.0675 334.6268 0002997 294.5893 270.2794  1.00271304 22642"}}, "geometry": {"type": "Point", "coordinates": [-23.5401738634825, -0.005191764099423343]}}, {"type": "Feature", "properties": {"norad_id": 44793, "name": "BEIDOU-3 M22 (C44)", "group": "gnss", "lat": -51.88363020016114, "lon": -121.17573073880443, "alt_km": 21536.628624750057, "timestamp": "2025-12-20T16:47:36.530024+00:00", "meta": {"OBJECT_NAME": "BEIDOU-3 M22 (C44)", "OBJECT_ID": "2019-078A", "EPOCH": "2025-12-19T04:51:35.344224", "MEAN_MOTION": 1.86232161, "ECCENTRICITY": 0.0006038, "INCLINATION": 54.1023, "RA_OF_ASC_NODE": 306.1592, "ARG_OF_PERICENTER": 24.3104, "MEAN_ANOMALY": 335.7082, "EPHEMERIS_TYPE": 0, "CLASSIFICATION_TYPE": "U", "NORAD_CAT_ID": 44793, "ELEMENT_SET_NO": 999, "REV_AT_EPOCH": 4129, "BSTAR": 0, "MEAN_MOTION_DOT": -7.7e-07, "MEAN_MOTION_DDOT": 0}, "tle": {"line1": "1 44793U 19078A   25353.20249241 -.00000077  00000+0  00000+0 0  9997", "line2": "2 44793  54.1023 306.1592 0006038  24.3104 335.7082  1.86232161 41295"}}, "geometry": {"type": "Point", "coordinates": [-121.17573073880443, -51.88363020016114]}}, {"type": "Feature", "properties": {"norad_id": 44794, "name": "BEIDOU-3 M21 (C43)", "group": "gnss", "lat": -9.258013636267796, "lon": 132.82768975875246, "alt_km": 21541.29571975347, "timestamp": "2025-12-20T16:47:36.530041+00:00", "meta": {"OBJECT_NAME": "BEIDOU-3 M21 (C43)", "OBJECT_ID": "2019-078B", "EPOCH": "2025-12-16T15:43:55.727904", "MEAN_MOTION": 1.86227668, "ECCENTRICITY": 0.00041169, "INCLINATION": 54.078, "RA_OF_ASC_NODE": 306.2132, "ARG_OF_PERICENTER": 11.942, "MEAN_ANOMALY": 348.0544, "EPHEMERIS_TYPE": 0, "CLASSIFICATION_TYPE": "U", "NORAD_CAT_ID": 44794, "ELEMENT_SET_NO": 999, "REV_AT_EPOCH": 4125, "BSTAR": 0, "MEAN_MOTION_DOT": -9.5e-07, "MEAN_MOTION_DDOT": 0}, "tle": {"line1": "1 44794U 19078B   25350.65550611 -.00000095  00000+0  00000+0 0  9990", "line2": "2 44794  54.0780 306.2132 0004116  11.9420 348.0544  1.86227668 41256"}}, "geometry": {"type": "Point", "coordinates": [132.82768975875246, -9.258013636267796]}}, {"type": "Feature", "properties": {"norad_id": 44850, "name": "COSMOS 2544 (759)", "group": "gnss", "lat": -7.146804724725425, "lon": 76.4272351107037, "alt_km": 19138.894272774185, "timestamp": "2025-12-20T16:47:36.530058+00:00", "meta": {"OBJECT_NAME": "COSMOS 2544 (759)", "OBJECT_ID": "2019-088A", "EPOCH": "2025-12-20T05:46:37.881408", "MEAN_MOTION": 2.13102097, "ECCENTRICITY": 0.0014137, "INCLINATION": 65.464, "RA_OF_ASC_NODE": 79.7074, "ARG_OF_PERICENTER": 250.1261, "MEAN_ANOMALY": 109.753, "EPHEMERIS_TYPE": 0, "CLASSIFICATION_TYPE": "U", "NORAD_CAT_ID": 44850, "ELEMENT_SET_NO": 999, "REV_AT_EPOCH": 4690, "BSTAR": 0, "MEAN_MOTION_DOT": -1.9e-07, "MEAN_MOTION_DDOT": 0}, "tle": {"line1": "1 44850U 19088A   25354.24071622 -.00000019  00000+0  00000+0 0  9999", "line2": "2 44850  65.4640  79.7074 0014137 250.1261 109.7530  2.13102097 46904"}}, "geometry": {"type": "Point", "coordinates": [76.4272351107037, -7.146804724725425]}}, {"type": "Feature", "properties": {"norad_id": 44864, "name": "BEIDOU-3 M19 (C41)", "group": "gnss", "lat": 22.546541561457403, "lon": 84.71317779862915, "alt_km": 21536.24139935927, "timestamp": "2025-12-20T16:47:36.530078+00:00", "meta": {"OBJECT_NAME": "BEIDOU-3 M19 (C41)", "OBJECT_ID": "2019-090A", "EPOCH": "2025-12-20T02:47:03.427296", "MEAN_MOTION": 1.8623162, "ECCENTRICITY": 0.00182866, "INCLINATION": 56.399, "RA_OF_ASC_NODE": 68.717, "ARG_OF_PERICENTER": 285.0022, "MEAN_ANOMALY": 70.8825, "EPHEMERIS_TYPE": 0, "CLASSIFICATION_TYPE": "U", "NORAD_CAT_ID": 44864, "ELEMENT_SET_NO": 999, "REV_AT_EPOCH": 4089, "BSTAR": 0, "MEAN_MOTION_DOT": -4.6e-07, "MEAN_MOTION_DDOT": 0}, "tle": {"line1": "1 44864U 19090A   25354.11601189 -.00000046  00000+0  00000+0 0  9990", "line2": "2 44864  56.3990  68.7170 0018286 285.0022  70.8825  1.86231620 40893"}}, "geometry": {"type": "Point", "coordinates": [84.71317779862915, 22.546541561457403]}}, {"type": "Feature", "properties": {"norad_id": 44865, "name": "BEIDOU-3 M20 (C42)", "group": "gnss", "lat": 48.01879513161251, "lon": -158.7860189708707, "alt_km": 21565.415112953233, "timestamp": "2025-12-20T16:47:36.530100+00:00", "meta": {"OBJECT_NAME": "BEIDOU-3 M20 (C42)", "OBJECT_ID": "2019-090B", "EPOCH": "2025-12-20T13:54:30.736224", "MEAN_MOTION": 1.86231557, "ECCENTRICITY": 0.0015475, "INCLINATION": 56.4009, "RA_OF_ASC_NODE": 68.736, "ARG_OF_PERICENTER": 297.1994, "MEAN_ANOMALY": 99.0588, "EPHEMERIS_TYPE": 0, "CLASSIFICATION_TYPE": "U", "NORAD_CAT_ID": 44865, "ELEMENT_SET_NO": 999, "REV_AT_EPOCH": 4089, "BSTAR": 0, "MEAN_MOTION_DOT": -4.2e-07, "MEAN_MOTION_DDOT": 0}, "tle": {"line1": "1 44865U 19090B   25354.57952241 -.00000042  00000+0  00000+0 0  9995", "line2": "2 44865  56.4009  68.7360 0015475 297.1994  99.0588  1.86231557 40894"}}, "geometry": {"type": "Point", "coordinates": [-158.7860189708707, 48.01879513161251]}}, {"type": "Feature", "properties": {"norad_id": 45344, "name": "BEIDOU-3 G2 (C60)", "group": "gnss", "lat": 0.7764853993216722, "lon": 61.45305717739111, "alt_km": 35792.79649709598, "timestamp": "2025-12-20T16:47:36.530119+00:00", "meta": {"OBJECT_NAME": "BEIDOU-3 G2 (C60)", "OBJECT_ID": "2020-017A", "EPOCH": "2025-12-19T13:38:45.370752", "MEAN_MOTION": 1.00273166, "ECCENTRICITY": 0.0002079, "INCLINATION": 2.5096, "RA_OF_ASC_NODE": 44.0024, "ARG_OF_PERICENTER": 233.0917, "MEAN_ANOMALY": 96.0359, "EPHEMERIS_TYPE": 0, "CLASSIFICATION_TYPE": "U", "NORAD_CAT_ID": 45344, "ELEMENT_SET_NO": 999, "REV_AT_EPOCH": 2145, "BSTAR": 0, "MEAN_MOTION_DOT": -1.18e-06, "MEAN_MOTION_DDOT": 0}, "tle": {"line1": "1 45344U 20017A   25353.56858068 -.00000118  00000+0  00000+0 0  9993", "line2": "2 45344   2.5096  44.0024 0002079 233.0917  96.0359  1.00273166 21451"}}, "geometry": {"type": "Point", "coordinates": [61.45305717739111, 0.7764853993216722]}}, {"type": "Feature", "properties": {"norad_id": 45358, "name": "COSMOS 2545 (760)", "group": "gnss", "lat": -19.596142259037123, "lon": 148.46532647905178, "alt_km": 19113.06414285776, "timestamp": "2025-12-20T16:47:36.530137+00:00", "meta": {"OBJECT_NAME": "COSMOS 2545 (760)", "OBJECT_ID": "2020-018A", "EPOCH": "2025-12-19T00:41:16.420128", "MEAN_MOTION": 2.13102611, "ECCENTRICITY": 0.0011548, "INCLINATION": 64.4657, "RA_OF_ASC_NODE": 318.7488, "ARG_OF_PERICENTER": 249.6698, "MEAN_ANOMALY": 110.1972, "EPHEMERIS_TYPE": 0, "CLASSIFICATION_TYPE": "U", "NORAD_CAT_ID": 45358, "ELEMENT_SET_NO": 999, "REV_AT_EPOCH": 4482, "BSTAR": 0, "MEAN_MOTION_DOT": -6.1e-07, "MEAN_MOTION_DDOT": 0}, "tle": {"line1": "1 45358U 20018A   25353.02866227 -.00000061  00000+0  00000+0 0  9993", "line2": "2 45358  64.4657 318.7488 0011548 249.6698 110.1972  2.13102611 44827"}}, "geometry": {"type": "Point", "coordinates": [148.46532647905178, -19.596142259037123]}}]}